UNKNOWN                 
1 83934U          26087.23513277 -.00000258  00000+0  00000+0 0  9994
2 83934   5.5469 296.8428 0223092 275.9186 296.7535  1.02663957 46368
UNKNOWN                 
1 84006U          26084.29526580  .00000037  00000+0  00000+0 0  9993
2 84006  22.3887 156.5223 6166861  96.6705 332.3368  2.16231086 86440
UNKNOWN                 
1 84177U          26085.98990080  .00004124  00000+0  53429-2 0  9996
2 84177   7.5543 125.0345 6584629 203.9091 101.2563  3.11924316133361
UNKNOWN                 
1 84188U          26087.26222417  .00206020  00000+0  10437+0 0  9991
2 84188  64.8855 160.4922 3473261   6.2251 357.2094  8.11151811 49609
UNKNOWN                 
1 84192U          26085.94961519  .00004983  00000+0  13663-1 0  9992
2 84192   6.1026  57.5144 6956391 338.3085   2.7316  2.59776346112569
UNKNOWN                 
1 84232U          26087.14280627  .00049362  00000+0  31157-1 0  9993
2 84232  20.3062 212.9043 6525009 175.0871 197.7037  3.23504234108066
UNKNOWN                 
1 84236U          26086.12852007  .00001021  00000+0  65064-2 0  9996
2 84236   9.2345 288.5327 6890727 186.5164 154.3543  2.62704423116725
UNKNOWN                 
1 84292U          26087.08484548  .00003316  00000+0  21020-2 0  9998
2 84292  23.8382  14.3740 4551081 133.8588 274.1885  6.22413555234627
UNKNOWN                 
1 84406U          26085.69393062  .00000555  00000+0  31186-2 0  9996
2 84406 101.7219 236.2012 0050727 192.1916 180.3498 12.67518606 62464
UNKNOWN                 
1 84407U          26085.90334660  .00000010  00000+0  18441-2 0  9995
2 84407  19.4369 291.8438 7216825 117.8091 330.6575  2.05797046 78015
UNKNOWN                 
1 84575U          26087.34750904 -.00000194  00000+0 -68999-4 0  9994
2 84575  18.0427 123.0101 7120620  87.2220 344.9951  2.19860468 67787
UNKNOWN                 
1 84932U          26087.57313347  .00000292  00000+0  35037-2 0  9994
2 84932   2.0570 180.8339 6574798 175.9500 168.5273  3.00166557134954
UNKNOWN                 
1 85004U          26087.21864045  .00000990  00000+0  31517-3 0  9997
2 85004  98.4367  61.8023 0046107 203.9774 172.0353 14.41395473646093
UNKNOWN                 
1 85010U          26076.42716587  .00000982  00000+0  10655-2 0  9992
2 85010  99.2461 300.4448 0026889   5.2422 118.1978 13.75282620616934
UNKNOWN                 
1 85015U          26086.57720363  .00000489  00000+0  10243-3 0  9997
2 85015  74.0503 197.5582 0013885  75.5520 284.7187 14.62438477657939
UNKNOWN                 
1 85023U          26086.34990891  .00023451  00000+0  30130-2 0  9996
2 85023  99.8403 129.8522 0001048 131.6786 291.9678 14.81184503644288
UNKNOWN                 
1 85027U          26087.61152380  .00000125  00000+0  19417-3 0  9993
2 85027  66.0415 202.2461 0168864 133.5216 228.0023 13.74294350619165
