[{"OBJECT_NAME":"UNKNOWN","OBJECT_ID":"","EPOCH":"2026-03-28T05:38:35.471328","MEAN_MOTION":1.02663957,"ECCENTRICITY":0.0223092,"INCLINATION":5.5469,"RA_OF_ASC_NODE":296.8428,"ARG_OF_PERICENTER":275.9186,"MEAN_ANOMALY":296.7535,"EPHEMERIS_TYPE":0,"CLASSIFICATION_TYPE":"U","NORAD_CAT_ID":83934,"ELEMENT_SET_NO":999,"REV_AT_EPOCH":4636,"BSTAR":0,"MEAN_MOTION_DOT":-2.58e-6,"MEAN_MOTION_DDOT":0},{"OBJECT_NAME":"UNKNOWN","OBJECT_ID":"","EPOCH":"2026-03-25T07:05:10.965120","MEAN_MOTION":2.16231086,"ECCENTRICITY":0.6166861,"INCLINATION":22.3887,"RA_OF_ASC_NODE":156.5223,"ARG_OF_PERICENTER":96.6705,"MEAN_ANOMALY":332.3368,"EPHEMERIS_TYPE":0,"CLASSIFICATION_TYPE":"U","NORAD_CAT_ID":84006,"ELEMENT_SET_NO":999,"REV_AT_EPOCH":8644,"BSTAR":0,"MEAN_MOTION_DOT":3.7e-7,"MEAN_MOTION_DDOT":0},{"OBJECT_NAME":"UNKNOWN","OBJECT_ID":"","EPOCH":"2026-03-26T23:45:27.429120","MEAN_MOTION":3.11924316,"ECCENTRICITY":0.6584629,"INCLINATION":7.5543,"RA_OF_ASC_NODE":125.0345,"ARG_OF_PERICENTER":203.9091,"MEAN_ANOMALY":101.2563,"EPHEMERIS_TYPE":0,"CLASSIFICATION_TYPE":"U","NORAD_CAT_ID":84177,"ELEMENT_SET_NO":999,"REV_AT_EPOCH":13336,"BSTAR":0.0053429,"MEAN_MOTION_DOT":4.124e-5,"MEAN_MOTION_DDOT":0},{"OBJECT_NAME":"UNKNOWN","OBJECT_ID":"","EPOCH":"2026-03-28T06:17:36.168288","MEAN_MOTION":8.11151811,"ECCENTRICITY":0.3473261,"INCLINATION":64.8855,"RA_OF_ASC_NODE":160.4922,"ARG_OF_PERICENTER":6.2251,"MEAN_ANOMALY":357.2094,"EPHEMERIS_TYPE":0,"CLASSIFICATION_TYPE":"U","NORAD_CAT_ID":84188,"ELEMENT_SET_NO":999,"REV_AT_EPOCH":4960,"BSTAR":0.10437,"MEAN_MOTION_DOT":0.0020602,"MEAN_MOTION_DDOT":0},{"OBJECT_NAME":"UNKNOWN","OBJECT_ID":"","EPOCH":"2026-03-26T22:47:26.752416","MEAN_MOTION":2.59776346,"ECCENTRICITY":0.6956391,"INCLINATION":6.1026,"RA_OF_ASC_NODE":57.5144,"ARG_OF_PERICENTER":338.3085,"MEAN_ANOMALY":2.7316,"EPHEMERIS_TYPE":0,"CLASSIFICATION_TYPE":"U","NORAD_CAT_ID":84192,"ELEMENT_SET_NO":999,"REV_AT_EPOCH":11256,"BSTAR":0.013663,"MEAN_MOTION_DOT":4.983e-5,"MEAN_MOTION_DDOT":0},{"OBJECT_NAME":"UNKNOWN","OBJECT_ID":"","EPOCH":"2026-03-28T03:25:38.461728","MEAN_MOTION":3.23504234,"ECCENTRICITY":0.6525009,"INCLINATION":20.3062,"RA_OF_ASC_NODE":212.9043,"ARG_OF_PERICENTER":175.0871,"MEAN_ANOMALY":197.7037,"EPHEMERIS_TYPE":0,"CLASSIFICATION_TYPE":"U","NORAD_CAT_ID":84232,"ELEMENT_SET_NO":999,"REV_AT_EPOCH":10806,"BSTAR":0.031157,"MEAN_MOTION_DOT":0.00049362,"MEAN_MOTION_DDOT":0},{"OBJECT_NAME":"UNKNOWN","OBJECT_ID":"","EPOCH":"2026-03-27T03:05:04.134048","MEAN_MOTION":2.62704423,"ECCENTRICITY":0.6890727,"INCLINATION":9.2345,"RA_OF_ASC_NODE":288.5327,"ARG_OF_PERICENTER":186.5164,"MEAN_ANOMALY":154.3543,"EPHEMERIS_TYPE":0,"CLASSIFICATION_TYPE":"U","NORAD_CAT_ID":84236,"ELEMENT_SET_NO":999,"REV_AT_EPOCH":11672,"BSTAR":0.0065064,"MEAN_MOTION_DOT":1.021e-5,"MEAN_MOTION_DDOT":0},{"OBJECT_NAME":"UNKNOWN","OBJECT_ID":"","EPOCH":"2026-03-28T02:02:10.649472","MEAN_MOTION":6.22413555,"ECCENTRICITY":0.4551081,"INCLINATION":23.8382,"RA_OF_ASC_NODE":14.374,"ARG_OF_PERICENTER":133.8588,"MEAN_ANOMALY":274.1885,"EPHEMERIS_TYPE":0,"CLASSIFICATION_TYPE":"U","NORAD_CAT_ID":84292,"ELEMENT_SET_NO":999,"REV_AT_EPOCH":23462,"BSTAR":0.002102,"MEAN_MOTION_DOT":3.316e-5,"MEAN_MOTION_DDOT":0},{"OBJECT_NAME":"UNKNOWN","OBJECT_ID":"","EPOCH":"2026-03-26T16:39:15.605568","MEAN_MOTION":12.67518606,"ECCENTRICITY":0.0050727,"INCLINATION":101.7219,"RA_OF_ASC_NODE":236.2012,"ARG_OF_PERICENTER":192.1916,"MEAN_ANOMALY":180.3498,"EPHEMERIS_TYPE":0,"CLASSIFICATION_TYPE":"U","NORAD_CAT_ID":84406,"ELEMENT_SET_NO":999,"REV_AT_EPOCH":6246,"BSTAR":0.0031186,"MEAN_MOTION_DOT":5.55e-6,"MEAN_MOTION_DDOT":0},{"OBJECT_NAME":"UNKNOWN","OBJECT_ID":"","EPOCH":"2026-03-26T21:40:49.146240","MEAN_MOTION":2.05797046,"ECCENTRICITY":0.7216825,"INCLINATION":19.4369,"RA_OF_ASC_NODE":291.8438,"ARG_OF_PERICENTER":117.8091,"MEAN_ANOMALY":330.6575,"EPHEMERIS_TYPE":0,"CLASSIFICATION_TYPE":"U","NORAD_CAT_ID":84407,"ELEMENT_SET_NO":999,"REV_AT_EPOCH":7801,"BSTAR":0.0018441,"MEAN_MOTION_DOT":1.0e-7,"MEAN_MOTION_DDOT":0},{"OBJECT_NAME":"UNKNOWN","OBJECT_ID":"","EPOCH":"2026-03-28T08:20:24.781056","MEAN_MOTION":2.19860468,"ECCENTRICITY":0.712062,"INCLINATION":18.0427,"RA_OF_ASC_NODE":123.0101,"ARG_OF_PERICENTER":87.222,"MEAN_ANOMALY":344.9951,"EPHEMERIS_TYPE":0,"CLASSIFICATION_TYPE":"U","NORAD_CAT_ID":84575,"ELEMENT_SET_NO":999,"REV_AT_EPOCH":6778,"BSTAR":-6.8999e-5,"MEAN_MOTION_DOT":-1.94e-6,"MEAN_MOTION_DDOT":0},{"OBJECT_NAME":"UNKNOWN","OBJECT_ID":"","EPOCH":"2026-03-28T13:45:18.731808","MEAN_MOTION":3.00166557,"ECCENTRICITY":0.6574798,"INCLINATION":2.057,"RA_OF_ASC_NODE":180.8339,"ARG_OF_PERICENTER":175.95,"MEAN_ANOMALY":168.5273,"EPHEMERIS_TYPE":0,"CLASSIFICATION_TYPE":"U","NORAD_CAT_ID":84932,"ELEMENT_SET_NO":999,"REV_AT_EPOCH":13495,"BSTAR":0.0035037,"MEAN_MOTION_DOT":2.92e-6,"MEAN_MOTION_DDOT":0},{"OBJECT_NAME":"UNKNOWN","OBJECT_ID":"","EPOCH":"2026-03-28T05:14:50.534880","MEAN_MOTION":14.41395473,"ECCENTRICITY":0.0046107,"INCLINATION":98.4367,"RA_OF_ASC_NODE":61.8023,"ARG_OF_PERICENTER":203.9774,"MEAN_ANOMALY":172.0353,"EPHEMERIS_TYPE":0,"CLASSIFICATION_TYPE":"U","NORAD_CAT_ID":85004,"ELEMENT_SET_NO":999,"REV_AT_EPOCH":64609,"BSTAR":0.00031517,"MEAN_MOTION_DOT":9.9e-6,"MEAN_MOTION_DDOT":0},{"OBJECT_NAME":"UNKNOWN","OBJECT_ID":"","EPOCH":"2026-03-17T10:15:07.131168","MEAN_MOTION":13.7528262,"ECCENTRICITY":0.0026889,"INCLINATION":99.2461,"RA_OF_ASC_NODE":300.4448,"ARG_OF_PERICENTER":5.2422,"MEAN_ANOMALY":118.1978,"EPHEMERIS_TYPE":0,"CLASSIFICATION_TYPE":"U","NORAD_CAT_ID":85010,"ELEMENT_SET_NO":999,"REV_AT_EPOCH":61693,"BSTAR":0.0010655,"MEAN_MOTION_DOT":9.82e-6,"MEAN_MOTION_DDOT":0},{"OBJECT_NAME":"UNKNOWN","OBJECT_ID":"","EPOCH":"2026-03-27T13:51:10.393632","MEAN_MOTION":14.62438477,"ECCENTRICITY":0.0013885,"INCLINATION":74.0503,"RA_OF_ASC_NODE":197.5582,"ARG_OF_PERICENTER":75.552,"MEAN_ANOMALY":284.7187,"EPHEMERIS_TYPE":0,"CLASSIFICATION_TYPE":"U","NORAD_CAT_ID":85015,"ELEMENT_SET_NO":999,"REV_AT_EPOCH":65793,"BSTAR":0.00010243,"MEAN_MOTION_DOT":4.89e-6,"MEAN_MOTION_DDOT":0},{"OBJECT_NAME":"UNKNOWN","OBJECT_ID":"","EPOCH":"2026-03-27T08:23:52.129824","MEAN_MOTION":14.81184503,"ECCENTRICITY":0.0001048,"INCLINATION":99.8403,"RA_OF_ASC_NODE":129.8522,"ARG_OF_PERICENTER":131.6786,"MEAN_ANOMALY":291.9678,"EPHEMERIS_TYPE":0,"CLASSIFICATION_TYPE":"U","NORAD_CAT_ID":85023,"ELEMENT_SET_NO":999,"REV_AT_EPOCH":64428,"BSTAR":0.003013,"MEAN_MOTION_DOT":0.00023451,"MEAN_MOTION_DDOT":0},{"OBJECT_NAME":"UNKNOWN","OBJECT_ID":"","EPOCH":"2026-03-28T14:40:35.656320","MEAN_MOTION":13.7429435,"ECCENTRICITY":0.0168864,"INCLINATION":66.0415,"RA_OF_ASC_NODE":202.2461,"ARG_OF_PERICENTER":133.5216,"MEAN_ANOMALY":228.0023,"EPHEMERIS_TYPE":0,"CLASSIFICATION_TYPE":"U","NORAD_CAT_ID":85027,"ELEMENT_SET_NO":999,"REV_AT_EPOCH":61916,"BSTAR":0.00019417,"MEAN_MOTION_DOT":1.25e-6,"MEAN_MOTION_DDOT":0}]
